{
  "norad_id": 66282,
  "name": "STARLINK-35776",
  "history": [
    {
      "epoch": "2026-03-28T18:39:12.917376Z",
      "apogee_km": 476.06729374985116,
      "perigee_km": 474.36382443776256,
      "latitude_deg": 1.3074107423104717e-05,
      "longitude_deg": -3.0466241816716275,
      "height_km": 476.06112679139045,
      "semi_major_axis_km": 6853.352559093806,
      "eccentricity": 0.00012428,
      "inclination_deg": 53.159,
      "raan_deg": 102.95,
      "arg_perigee_deg": 86.4702,
      "mean_anomaly_deg": 273.6441,
      "mean_motion_rev_day": 15.30199836
    },
    {
      "epoch": "2026-03-29T00:55:25.555008Z",
      "apogee_km": 476.0989055693235,
      "perigee_km": 474.2663279038088,
      "latitude_deg": -6.877452178203716e-05,
      "longitude_deg": -98.5701490561987,
      "height_km": 476.0551126422929,
      "semi_major_axis_km": 6853.319616736566,
      "eccentricity": 0.0001337,
      "inclination_deg": 53.1589,
      "raan_deg": 101.7367,
      "arg_perigee_deg": 88.4125,
      "mean_anomaly_deg": 271.7028,
      "mean_motion_rev_day": 15.30210869
    },
    {
      "epoch": "2026-03-30T06:42:26.354880Z",
      "apogee_km": 476.1974099440249,
      "perigee_km": 474.1199018988882,
      "latitude_deg": 3.227236242814869e-05,
      "longitude_deg": 167.69052707969408,
      "height_km": 475.8717597711152,
      "semi_major_axis_km": 6853.295655921456,
      "eccentricity": 0.00015157,
      "inclination_deg": 53.16,
      "raan_deg": 95.9738,
      "arg_perigee_deg": 79.7595,
      "mean_anomaly_deg": 280.3577,
      "mean_motion_rev_day": 15.30218894
    },
    {
      "epoch": "2026-03-30T09:50:32.881920Z",
      "apogee_km": 476.1488458601498,
      "perigee_km": 474.3780642505726,
      "latitude_deg": 4.99799399499812e-05,
      "longitude_deg": 119.92708853685275,
      "height_km": 476.2251121291214,
      "semi_major_axis_km": 6853.400455055361,
      "eccentricity": 0.00012919,
      "inclination_deg": 53.1594,
      "raan_deg": 95.3663,
      "arg_perigee_deg": 94.1249,
      "mean_anomaly_deg": 265.99,
      "mean_motion_rev_day": 15.30183795
    },
    {
      "epoch": "2026-03-30T17:40:48.962784Z",
      "apogee_km": 476.1681355263354,
      "perigee_km": 474.29497283310775,
      "latitude_deg": 7.09985148413203e-05,
      "longitude_deg": 0.5193139564386937,
      "height_km": 476.2870185325136,
      "semi_major_axis_km": 6853.368554179721,
      "eccentricity": 0.00013666,
      "inclination_deg": 53.1593,
      "raan_deg": 93.8474,
      "arg_perigee_deg": 99.6865,
      "mean_anomaly_deg": 260.4291,
      "mean_motion_rev_day": 15.30194479
    },
    {
      "epoch": "2026-03-31T17:11:36.508992Z",
      "apogee_km": 476.04570372296166,
      "perigee_km": 474.2844050949798,
      "latitude_deg": -1.2150734692597498e-05,
      "longitude_deg": 2.3059910053776913,
      "height_km": 476.1573806842939,
      "semi_major_axis_km": 6853.30205440897,
      "eccentricity": 0.0001285,
      "inclination_deg": 53.1596,
      "raan_deg": 89.2979,
      "arg_perigee_deg": 96.1469,
      "mean_anomaly_deg": 263.9678,
      "mean_motion_rev_day": 15.30216751
    },
    {
      "epoch": "2026-04-01T16:42:24.363648Z",
      "apogee_km": 476.2892605551542,
      "perigee_km": 474.1866451196238,
      "latitude_deg": 4.358357418412615e-05,
      "longitude_deg": 4.088182758309717,
      "height_km": 476.11656845073134,
      "semi_major_axis_km": 6853.374952837388,
      "eccentricity": 0.0001534,
      "inclination_deg": 53.1594,
      "raan_deg": 84.7451,
      "arg_perigee_deg": 88.9634,
      "mean_anomaly_deg": 271.1543,
      "mean_motion_rev_day": 15.30192336
    },
    {
      "epoch": "2026-04-02T16:13:12.651168Z",
      "apogee_km": 476.2845988334484,
      "perigee_km": 474.08975323283084,
      "latitude_deg": 6.531636292184242e-05,
      "longitude_deg": 5.871640231287277,
      "height_km": 476.100598777578,
      "semi_major_axis_km": 6853.324176033139,
      "eccentricity": 0.00016013,
      "inclination_deg": 53.1588,
      "raan_deg": 80.1954,
      "arg_perigee_deg": 90.8325,
      "mean_anomaly_deg": 269.286,
      "mean_motion_rev_day": 15.30209342
    }
  ]
}